*******************************************************************************
Ephemeris / WWW_USER Mon Mar 26 21:57:29 2018 Pasadena, USA      / Horizons    
*******************************************************************************
Target body name: Pluto (999)                     {source: plu055l_merged}
Center body name: Solar System Barycenter (0)     {source: DE431mx}
Center-site name: BODY CENTER
*******************************************************************************
Start time      : A.D. 2000-Jan-01 00:00:00.0000 TDB
Stop  time      : A.D. 2005-Jan-01 00:00:00.0000 TDB
Step-size       : 7200 minutes
*******************************************************************************
Center geodetic : 0.00000000,0.00000000,0.0000000 {E-lon(deg),Lat(deg),Alt(km)}
Center cylindric: 0.00000000,0.00000000,0.0000000 {E-lon(deg),Dxy(km),Dz(km)}
Center radii    : (undefined)                                                  
Output units    : AU-D                                                         
Output type     : GEOMETRIC cartesian states
Output format   : 2 (position and velocity)
Reference frame : ICRF/J2000.0                                                 
Coordinate systm: Ecliptic and Mean Equinox of Reference Epoch                 
*******************************************************************************
JDTDB
   X     Y     Z
   VX    VY    VZ
*******************************************************************************
$$SOE
2451544.500000000 = A.D. 2000-Jan-01 00:00:00.0000 TDB 
  -9.884006595855096E+00 -2.796081320603301E+01  5.851020841275061E+00
   3.044390641302692E-03 -1.537290075737863E-03 -7.173359336658472E-04
2451549.500000000 = A.D. 2000-Jan-06 00:00:00.0000 TDB 
  -9.868845176174778E+00 -2.796855021220269E+01  5.847454157621059E+00
   3.036744251154233E-03 -1.534900242312592E-03 -7.019747082599037E-04
2451554.500000000 = A.D. 2000-Jan-11 00:00:00.0000 TDB 
  -9.853664791280952E+00 -2.797626943614447E+01  5.843873942980388E+00
   3.025693795403463E-03 -1.546738875035822E-03 -7.034833415506679E-04
2451559.500000000 = A.D. 2000-Jan-16 00:00:00.0000 TDB 
  -9.838475043521429E+00 -2.798396490290891E+01  5.840306498409378E+00
   3.029661921289046E-03 -1.551582822795580E-03 -7.199584662145268E-04
2451564.500000000 = A.D. 2000-Jan-21 00:00:00.0000 TDB 
  -9.823296223173859E+00 -2.799165649715015E+01  5.836755312155885E+00
   3.043170112325142E-03 -1.539347763257862E-03 -7.256925826986964E-04
2451569.500000000 = A.D. 2000-Jan-26 00:00:00.0000 TDB 
  -9.808127046459212E+00 -2.799935832742633E+01  5.833195530285637E+00
   3.045577279797564E-03 -1.527103326798226E-03 -7.120669784930311E-04
2451574.500000000 = A.D. 2000-Jan-31 00:00:00.0000 TDB 
  -9.792946705767877E+00 -2.800705629369618E+01  5.829613477105242E+00
   3.033885579264103E-03 -1.531940424961236E-03 -7.012448182907505E-04
2451579.500000000 = A.D. 2000-Feb-05 00:00:00.0000 TDB 
  -9.777747965647567E+00 -2.801473049915121E+01  5.826028418951814E+00
   3.027531013645581E-03 -1.543778693924095E-03 -7.109447355525016E-04
2451584.500000000 = A.D. 2000-Feb-10 00:00:00.0000 TDB 
  -9.762548688198988E+00 -2.802238690958778E+01  5.822461916922797E+00
   3.037453667885243E-03 -1.541397328575157E-03 -7.262268780925798E-04
2451589.500000000 = A.D. 2000-Feb-15 00:00:00.0000 TDB 
  -9.747363416555084E+00 -2.803004785152796E+01  5.818903530431230E+00
   3.048702184988903E-03 -1.526202053952893E-03 -7.232873801951710E-04
2451594.500000000 = A.D. 2000-Feb-20 00:00:00.0000 TDB 
  -9.732180263272937E+00 -2.803771650760501E+01  5.815327434488584E+00
   3.044219838791432E-03 -1.519967254238379E-03 -7.072934023551754E-04
2451599.500000000 = A.D. 2000-Feb-25 00:00:00.0000 TDB 
  -9.716979815228425E+00 -2.804537185017443E+01  5.811733484964281E+00
   3.031960042129866E-03 -1.530228658611948E-03 -7.041815443228741E-04
2451604.500000000 = A.D. 2000-Mar-01 00:00:00.0000 TDB 
  -9.701766025917655E+00 -2.805300208319490E+01  5.808147466575552E+00
   3.032257706042542E-03 -1.538270296732040E-03 -7.193987215346460E-04
2451609.500000000 = A.D. 2000-Mar-06 00:00:00.0000 TDB 
  -9.686559932081503E+00 -2.806062341056602E+01  5.804580066821614E+00
   3.045459755342084E-03 -1.528916132509180E-03 -7.292303911661502E-04
2451614.500000000 = A.D. 2000-Mar-11 00:00:00.0000 TDB 
  -9.671366196512279E+00 -2.806825424898093E+01  5.801009891535174E+00
   3.051397972627270E-03 -1.514654348436305E-03 -7.185402974758809E-04
2451619.500000000 = A.D. 2000-Mar-16 00:00:00.0000 TDB 
  -9.656165706413089E+00 -2.807588594683789E+01  5.797417487741639E+00
   3.041448226439324E-03 -1.515777894300729E-03 -7.048175705643435E-04
2451624.500000000 = A.D. 2000-Mar-21 00:00:00.0000 TDB 
  -9.640945969050684E+00 -2.808349653037288E+01  5.793816287983524E+00
   3.032259508107217E-03 -1.528114249659858E-03 -7.103909317729374E-04
2451629.500000000 = A.D. 2000-Mar-26 00:00:00.0000 TDB 
  -9.625721002438173E+00 -2.809108566426169E+01  5.790231251519945E+00
   3.039270739806619E-03 -1.529645100462708E-03 -7.268828882195724E-04
2451634.500000000 = A.D. 2000-Mar-31 00:00:00.0000 TDB 
  -9.610509033723682E+00 -2.809867517759870E+01  5.786659155267849E+00
   3.052145214988385E-03 -1.515552312190442E-03 -7.285581955983490E-04
2451639.500000000 = A.D. 2000-Apr-05 00:00:00.0000 TDB 
  -9.595303524550978E+00 -2.810627434300434E+01  5.783073737386889E+00
   3.051229527295088E-03 -1.505854339677995E-03 -7.132448245513183E-04
2451644.500000000 = A.D. 2000-Apr-10 00:00:00.0000 TDB 
  -9.580083573367199E+00 -2.811386513123349E+01  5.779467454984519E+00
   3.038790240312391E-03 -1.513590905948952E-03 -7.057886189543732E-04
2451649.500000000 = A.D. 2000-Apr-15 00:00:00.0000 TDB 
  -9.564847167723849E+00 -2.812143087653608E+01  5.775863499246020E+00
   3.035434531160958E-03 -1.524062342536230E-03 -7.185469991112823E-04
2451654.500000000 = A.D. 2000-Apr-20 00:00:00.0000 TDB 
  -9.549614397196594E+00 -2.812898279545931E+01  5.772278899143459E+00
   3.047309588312338E-03 -1.518221327201757E-03 -7.317102014328083E-04
2451659.500000000 = A.D. 2000-Apr-25 00:00:00.0000 TDB 
  -9.534395496112293E+00 -2.813654213048713E+01  5.768697442115891E+00
   3.056342184787006E-03 -1.502969387199884E-03 -7.248405490334817E-04
2451664.500000000 = A.D. 2000-Apr-30 00:00:00.0000 TDB 
  -9.519174584298870E+00 -2.814410637368134E+01  5.765095463868802E+00
   3.048977316082584E-03 -1.500168504532667E-03 -7.093482200697881E-04
2451669.500000000 = A.D. 2000-May-05 00:00:00.0000 TDB 
  -9.503934920177121E+00 -2.815165324577634E+01  5.761479481901514E+00
   3.037736019744580E-03 -1.511888173346271E-03 -7.103706030994852E-04
2451674.500000000 = A.D. 2000-May-10 00:00:00.0000 TDB 
  -9.488685548515043E+00 -2.815917613649906E+01  5.757875843848529E+00
   3.041312120039548E-03 -1.517087784235740E-03 -7.267694379005110E-04
2451679.500000000 = A.D. 2000-May-15 00:00:00.0000 TDB 
  -9.473446913573691E+00 -2.816669461864056E+01  5.754288806220531E+00
   3.054817969673434E-03 -1.505110416271745E-03 -7.329493366459543E-04
2451684.500000000 = A.D. 2000-May-20 00:00:00.0000 TDB 
  -9.458218351307039E+00 -2.817422330787080E+01  5.750693782586086E+00
   3.057583581029527E-03 -1.492609522457434E-03 -7.195742946422948E-04
2451689.500000000 = A.D. 2000-May-25 00:00:00.0000 TDB 
  -9.442979154609141E+00 -2.818174862446751E+01  5.747076438732390E+00
   3.046008598814594E-03 -1.497076946072193E-03 -7.083999784035708E-04
2451694.500000000 = A.D. 2000-May-30 00:00:00.0000 TDB 
  -9.427721509163616E+00 -2.818925037774210E+01  5.743455503313918E+00
   3.039310381536836E-03 -1.509014253662406E-03 -7.176965403480929E-04
2451699.500000000 = A.D. 2000-Jun-04 00:00:00.0000 TDB 
  -9.412462940142508E+00 -2.819673389281760E+01  5.739852977112553E+00
   3.048943356273444E-03 -1.507036214210059E-03 -7.331569772523230E-04
2451704.500000000 = A.D. 2000-Jun-09 00:00:00.0000 TDB 
  -9.397218431091844E+00 -2.820422152783314E+01  5.736259136544053E+00
   3.060383994874754E-03 -1.491900658898644E-03 -7.306847420955185E-04
2451709.500000000 = A.D. 2000-Jun-14 00:00:00.0000 TDB 
  -9.381976611364289E+00 -2.821171711846428E+01  5.732648010887266E+00
   3.056237774966970E-03 -1.485280398804695E-03 -7.146955461116906E-04
2451714.500000000 = A.D. 2000-Jun-19 00:00:00.0000 TDB 
  -9.366717839465084E+00 -2.821919987409484E+01  5.729018678339897E+00
   3.043890703621991E-03 -1.495317746128971E-03 -7.111092299228300E-04
2451719.500000000 = A.D. 2000-Jun-24 00:00:00.0000 TDB 
  -9.351445458339779E+00 -2.822665744234445E+01  5.725396751303384E+00
   3.043783897970539E-03 -1.503647012522880E-03 -7.261191268594283E-04
2451724.500000000 = A.D. 2000-Jun-29 00:00:00.0000 TDB 
  -9.336180484192202E+00 -2.823410556317583E+01  5.721793625104866E+00
   3.056875060349179E-03 -1.494627952579673E-03 -7.363311933624283E-04
2451729.500000000 = A.D. 2000-Jul-04 00:00:00.0000 TDB 
  -9.320928180902891E+00 -2.824156301883176E+01  5.718188367453704E+00
   3.063139520285686E-03 -1.480209682308196E-03 -7.259954690111975E-04
2451734.500000000 = A.D. 2000-Jul-09 00:00:00.0000 TDB 
  -9.305669702508728E+00 -2.824902177129004E+01  5.714561007278541E+00
   3.053402079284233E-03 -1.480927245548357E-03 -7.120286975259228E-04
2451739.500000000 = A.D. 2000-Jul-14 00:00:00.0000 TDB 
  -9.290392063971613E+00 -2.825645973311125E+01  5.710924301509930E+00
   3.043941097872653E-03 -1.493247885821662E-03 -7.171389343103654E-04
2451744.500000000 = A.D. 2000-Jul-19 00:00:00.0000 TDB 
  -9.275108815254507E+00 -2.826387590880390E+01  5.707303451819921E+00
   3.050596303635088E-03 -1.495171868464954E-03 -7.336769463248359E-04
2451749.500000000 = A.D. 2000-Jul-24 00:00:00.0000 TDB 
  -9.259838484825371E+00 -2.827129197191445E+01  5.703696009654929E+00
   3.063564337050053E-03 -1.481249585169638E-03 -7.358250075917107E-04
